ONEWEB-0380             
1 49306U 21090AD  25248.26561190  .00000048  00000+0  88717-4 0  9991
2 49306  87.9277   1.6262 0001991 102.7040 257.4316 13.19725124188847
ONEWEB-0381             
1 49307U 21090AE  25248.23704206  .00000119  00000+0  26050-3 0  9996
2 49307  87.9290 331.2439 0002161  98.8254 261.3124 13.20772794192217
ONEWEB-0382             
1 49308U 21090AF  25248.14863665  .00000044  00000+0  75563-4 0  9993
2 49308  87.9287 331.2522 0002166  94.2003 265.9378 13.20770643192193
ONEWEB-0383             
1 49309U 21090AG  25248.27488321  .00000249  00000+0  63773-3 0  9996
2 49309  87.9096 346.4044 0001848  94.3156 265.8185 13.14503493190165
ONEWEB-0384             
1 49310U 21090AH  25248.29531756  .00000038  00000+0  61329-4 0  9993
2 49310  87.9305 331.2467 0002332  89.8735 270.2665 13.20789494192228
ONEWEB-0385             
1 49311U 21090AJ  25248.29227379  .00000046  00000+0  81155-4 0  9995
2 49311  87.9282 331.2359 0002047  96.5522 263.5844 13.20773170192199
ONEWEB-0386             
1 49312U 21090AK  25248.23387702  .00000793  00000+0  19172-2 0  9994
2 49312  87.9297 331.2227 0002063  95.6891 264.4478 13.20767346192200
ONEWEB-0387             
1 49313U 21090AL  25248.29383549 -.00000002  00000+0 -36349-4 0  9998
2 49313  87.9282 331.2646 0002170 102.0167 258.1209 13.20769929192210
ONEWEB-0388             
1 49314U 21090AM  25248.26088929  .00000038  00000+0  63403-4 0  9998
2 49314  87.9273   1.6337 0001894  95.6958 264.4391 13.19726386188836
ONEWEB-0389             
1 50469U 21132A   25248.21028264 -.00000002  00000+0 -37865-4 0  9995
2 50469  87.9036  62.5620 0002142  93.5096 266.6280 13.17650017180551
ONEWEB-0390             
1 50470U 21132B   25248.21196033  .00000115  00000+0  26391-3 0  9991
2 50470  87.9039  62.5680 0001669 100.1292 260.0028 13.17647960180559
ONEWEB-0391             
1 50471U 21132C   25248.21365492  .00007894  00000+0  20293-1 0  9993
2 50471  87.9032  62.5809 0002708 109.2670 250.8755 13.17611094180554
ONEWEB-0392             
1 50472U 21132D   25248.24402098  .00000003  00000+0 -26536-4 0  9996
2 50472  87.9038  62.5195 0002134  95.2277 264.9099 13.17649327180590
ONEWEB-0393             
1 50473U 21132E   25248.21712373  .00000070  00000+0  14709-3 0  9995
2 50473  87.9039  62.5446 0001912  93.0330 267.1020 13.17646938180583
ONEWEB-0394             
1 50474U 21132F   25247.95394592 -.00000112  00000+0 -31667-3 0  9996
2 50474  87.9175  32.0787 0001922  94.7612 265.3740 13.18686475184008
ONEWEB-0395             
1 50475U 21132G   25248.04601358  .00000275  00000+0  73974-3 0  9994
2 50475  87.8774  77.8947 0001798  96.3180 263.8153 13.11418881178345
ONEWEB-0396             
1 50476U 21132H   25247.94734633  .00000005  00000+0 -21317-4 0  9993
2 50476  87.9173  32.0921 0001844  95.6050 264.5292 13.18686416184049
