[{"OBJECT_NAME":"ONEWEB-0380","OBJECT_ID":"2021-090AD","EPOCH":"2025-09-05T06:22:28.868160","MEAN_MOTION":13.19725124,"ECCENTRICITY":0.0001991,"INCLINATION":87.9277,"RA_OF_ASC_NODE":1.6262,"ARG_OF_PERICENTER":102.704,"MEAN_ANOMALY":257.4316,"EPHEMERIS_TYPE":0,"CLASSIFICATION_TYPE":"U","NORAD_CAT_ID":49306,"ELEMENT_SET_NO":999,"REV_AT_EPOCH":18884,"BSTAR":8.8716902e-5,"MEAN_MOTION_DOT":4.8e-7,"MEAN_MOTION_DDOT":0},{"OBJECT_NAME":"ONEWEB-0381","OBJECT_ID":"2021-090AE","EPOCH":"2025-09-05T05:41:20.433984","MEAN_MOTION":13.20772794,"ECCENTRICITY":0.00021618,"INCLINATION":87.929,"RA_OF_ASC_NODE":331.2439,"ARG_OF_PERICENTER":98.8254,"MEAN_ANOMALY":261.3124,"EPHEMERIS_TYPE":0,"CLASSIFICATION_TYPE":"U","NORAD_CAT_ID":49307,"ELEMENT_SET_NO":999,"REV_AT_EPOCH":19221,"BSTAR":0.00026049571,"MEAN_MOTION_DOT":1.19e-6,"MEAN_MOTION_DDOT":0},{"OBJECT_NAME":"ONEWEB-0382","OBJECT_ID":"2021-090AF","EPOCH":"2025-09-05T03:34:02.206560","MEAN_MOTION":13.20770643,"ECCENTRICITY":0.00021661,"INCLINATION":87.9287,"RA_OF_ASC_NODE":331.2522,"ARG_OF_PERICENTER":94.2003,"MEAN_ANOMALY":265.9378,"EPHEMERIS_TYPE":0,"CLASSIFICATION_TYPE":"U","NORAD_CAT_ID":49308,"ELEMENT_SET_NO":999,"REV_AT_EPOCH":19219,"BSTAR":7.5562726e-5,"MEAN_MOTION_DOT":4.4e-7,"MEAN_MOTION_DDOT":0},{"OBJECT_NAME":"ONEWEB-0383","OBJECT_ID":"2021-090AG","EPOCH":"2025-09-05T06:35:49.909344","MEAN_MOTION":13.14503493,"ECCENTRICITY":0.00018485,"INCLINATION":87.9096,"RA_OF_ASC_NODE":346.4044,"ARG_OF_PERICENTER":94.3156,"MEAN_ANOMALY":265.8185,"EPHEMERIS_TYPE":0,"CLASSIFICATION_TYPE":"U","NORAD_CAT_ID":49309,"ELEMENT_SET_NO":999,"REV_AT_EPOCH":19016,"BSTAR":0.00063773228,"MEAN_MOTION_DOT":2.49e-6,"MEAN_MOTION_DDOT":0},{"OBJECT_NAME":"ONEWEB-0384","OBJECT_ID":"2021-090AH","EPOCH":"2025-09-05T07:05:15.437184","MEAN_MOTION":13.20789494,"ECCENTRICITY":0.00023324,"INCLINATION":87.9305,"RA_OF_ASC_NODE":331.2467,"ARG_OF_PERICENTER":89.8735,"MEAN_ANOMALY":270.2665,"EPHEMERIS_TYPE":0,"CLASSIFICATION_TYPE":"U","NORAD_CAT_ID":49310,"ELEMENT_SET_NO":999,"REV_AT_EPOCH":19222,"BSTAR":6.1328978e-5,"MEAN_MOTION_DOT":3.8e-7,"MEAN_MOTION_DDOT":0},{"OBJECT_NAME":"ONEWEB-0385","OBJECT_ID":"2021-090AJ","EPOCH":"2025-09-05T07:00:52.455456","MEAN_MOTION":13.2077317,"ECCENTRICITY":0.00020473,"INCLINATION":87.9282,"RA_OF_ASC_NODE":331.2359,"ARG_OF_PERICENTER":96.5522,"MEAN_ANOMALY":263.5844,"EPHEMERIS_TYPE":0,"CLASSIFICATION_TYPE":"U","NORAD_CAT_ID":49311,"ELEMENT_SET_NO":999,"REV_AT_EPOCH":19219,"BSTAR":8.115533e-5,"MEAN_MOTION_DOT":4.6e-7,"MEAN_MOTION_DDOT":0},{"OBJECT_NAME":"ONEWEB-0386","OBJECT_ID":"2021-090AK","EPOCH":"2025-09-05T05:36:46.974528","MEAN_MOTION":13.20767346,"ECCENTRICITY":0.00020635,"INCLINATION":87.9297,"RA_OF_ASC_NODE":331.2227,"ARG_OF_PERICENTER":95.6891,"MEAN_ANOMALY":264.4478,"EPHEMERIS_TYPE":0,"CLASSIFICATION_TYPE":"U","NORAD_CAT_ID":49312,"ELEMENT_SET_NO":999,"REV_AT_EPOCH":19220,"BSTAR":0.0019171813,"MEAN_MOTION_DOT":7.93e-6,"MEAN_MOTION_DDOT":0},{"OBJECT_NAME":"ONEWEB-0387","OBJECT_ID":"2021-090AL","EPOCH":"2025-09-05T07:03:07.386336","MEAN_MOTION":13.20769929,"ECCENTRICITY":0.00021706,"INCLINATION":87.9282,"RA_OF_ASC_NODE":331.2646,"ARG_OF_PERICENTER":102.0167,"MEAN_ANOMALY":258.1209,"EPHEMERIS_TYPE":0,"CLASSIFICATION_TYPE":"U","NORAD_CAT_ID":49313,"ELEMENT_SET_NO":999,"REV_AT_EPOCH":19221,"BSTAR":-3.6348764e-5,"MEAN_MOTION_DOT":-2.0e-8,"MEAN_MOTION_DDOT":0},{"OBJECT_NAME":"ONEWEB-0388","OBJECT_ID":"2021-090AM","EPOCH":"2025-09-05T06:15:40.834656","MEAN_MOTION":13.19726386,"ECCENTRICITY":0.00018942,"INCLINATION":87.9273,"RA_OF_ASC_NODE":1.6337,"ARG_OF_PERICENTER":95.6958,"MEAN_ANOMALY":264.4391,"EPHEMERIS_TYPE":0,"CLASSIFICATION_TYPE":"U","NORAD_CAT_ID":49314,"ELEMENT_SET_NO":999,"REV_AT_EPOCH":18883,"BSTAR":6.3403445e-5,"MEAN_MOTION_DOT":3.8e-7,"MEAN_MOTION_DDOT":0},{"OBJECT_NAME":"ONEWEB-0389","OBJECT_ID":"2021-132A","EPOCH":"2025-09-05T05:02:48.420096","MEAN_MOTION":13.17650017,"ECCENTRICITY":0.00021427,"INCLINATION":87.9036,"RA_OF_ASC_NODE":62.562,"ARG_OF_PERICENTER":93.5096,"MEAN_ANOMALY":266.628,"EPHEMERIS_TYPE":0,"CLASSIFICATION_TYPE":"U","NORAD_CAT_ID":50469,"ELEMENT_SET_NO":999,"REV_AT_EPOCH":18055,"BSTAR":-3.7864968e-5,"MEAN_MOTION_DOT":-2.0e-8,"MEAN_MOTION_DDOT":0},{"OBJECT_NAME":"ONEWEB-0390","OBJECT_ID":"2021-132B","EPOCH":"2025-09-05T05:05:13.372512","MEAN_MOTION":13.1764796,"ECCENTRICITY":0.00016697,"INCLINATION":87.9039,"RA_OF_ASC_NODE":62.568,"ARG_OF_PERICENTER":100.1292,"MEAN_ANOMALY":260.0028,"EPHEMERIS_TYPE":0,"CLASSIFICATION_TYPE":"U","NORAD_CAT_ID":50470,"ELEMENT_SET_NO":999,"REV_AT_EPOCH":18055,"BSTAR":0.0002639101,"MEAN_MOTION_DOT":1.15e-6,"MEAN_MOTION_DDOT":0},{"OBJECT_NAME":"ONEWEB-0391","OBJECT_ID":"2021-132C","EPOCH":"2025-09-05T05:07:39.785088","MEAN_MOTION":13.17611094,"ECCENTRICITY":0.00027088,"INCLINATION":87.9032,"RA_OF_ASC_NODE":62.5809,"ARG_OF_PERICENTER":109.267,"MEAN_ANOMALY":250.8755,"EPHEMERIS_TYPE":0,"CLASSIFICATION_TYPE":"U","NORAD_CAT_ID":50471,"ELEMENT_SET_NO":999,"REV_AT_EPOCH":18055,"BSTAR":0.020292802,"MEAN_MOTION_DOT":7.894e-5,"MEAN_MOTION_DDOT":0},{"OBJECT_NAME":"ONEWEB-0392","OBJECT_ID":"2021-132D","EPOCH":"2025-09-05T05:51:23.412672","MEAN_MOTION":13.17649327,"ECCENTRICITY":0.0002134,"INCLINATION":87.9038,"RA_OF_ASC_NODE":62.5195,"ARG_OF_PERICENTER":95.2277,"MEAN_ANOMALY":264.9099,"EPHEMERIS_TYPE":0,"CLASSIFICATION_TYPE":"U","NORAD_CAT_ID":50472,"ELEMENT_SET_NO":999,"REV_AT_EPOCH":18059,"BSTAR":-2.6536003e-5,"MEAN_MOTION_DOT":3.0e-8,"MEAN_MOTION_DDOT":0},{"OBJECT_NAME":"ONEWEB-0393","OBJECT_ID":"2021-132E","EPOCH":"2025-09-05T05:12:39.490272","MEAN_MOTION":13.17646938,"ECCENTRICITY":0.00019127,"INCLINATION":87.9039,"RA_OF_ASC_NODE":62.5446,"ARG_OF_PERICENTER":93.033,"MEAN_ANOMALY":267.102,"EPHEMERIS_TYPE":0,"CLASSIFICATION_TYPE":"U","NORAD_CAT_ID":50473,"ELEMENT_SET_NO":999,"REV_AT_EPOCH":18058,"BSTAR":0.00014709326,"MEAN_MOTION_DOT":7.0e-7,"MEAN_MOTION_DDOT":0},{"OBJECT_NAME":"ONEWEB-0394","OBJECT_ID":"2021-132F","EPOCH":"2025-09-04T22:53:40.927488","MEAN_MOTION":13.18686475,"ECCENTRICITY":0.00019225,"INCLINATION":87.9175,"RA_OF_ASC_NODE":32.0787,"ARG_OF_PERICENTER":94.7612,"MEAN_ANOMALY":265.374,"EPHEMERIS_TYPE":0,"CLASSIFICATION_TYPE":"U","NORAD_CAT_ID":50474,"ELEMENT_SET_NO":999,"REV_AT_EPOCH":18400,"BSTAR":-0.00031667118,"MEAN_MOTION_DOT":-1.12e-6,"MEAN_MOTION_DDOT":0},{"OBJECT_NAME":"ONEWEB-0395","OBJECT_ID":"2021-132G","EPOCH":"2025-09-05T01:06:15.573312","MEAN_MOTION":13.11418881,"ECCENTRICITY":0.00017985,"INCLINATION":87.8774,"RA_OF_ASC_NODE":77.8947,"ARG_OF_PERICENTER":96.318,"MEAN_ANOMALY":263.8153,"EPHEMERIS_TYPE":0,"CLASSIFICATION_TYPE":"U","NORAD_CAT_ID":50475,"ELEMENT_SET_NO":999,"REV_AT_EPOCH":17834,"BSTAR":0.00073974422,"MEAN_MOTION_DOT":2.75e-6,"MEAN_MOTION_DDOT":0},{"OBJECT_NAME":"ONEWEB-0396","OBJECT_ID":"2021-132H","EPOCH":"2025-09-04T22:44:10.722912","MEAN_MOTION":13.18686416,"ECCENTRICITY":0.00018447,"INCLINATION":87.9173,"RA_OF_ASC_NODE":32.0921,"ARG_OF_PERICENTER":95.605,"MEAN_ANOMALY":264.5292,"EPHEMERIS_TYPE":0,"CLASSIFICATION_TYPE":"U","NORAD_CAT_ID":50476,"ELEMENT_SET_NO":999,"REV_AT_EPOCH":18404,"BSTAR":-2.1316555e-5,"MEAN_MOTION_DOT":5.0e-8,"MEAN_MOTION_DDOT":0}]
